STARLINK-1802           
1 46702U 20073AJ  21332.90105018  .00003224  00000+0  23520-3 0  9991
2 46702  53.0548  32.7723 0000303  85.0869 275.0155 15.06404664 62012
STARLINK-1803           
1 46703U 20073AK  21333.39680848  .00000390  00000+0  45115-4 0  9991
2 46703  53.0550  50.5370 0001444  79.2110 280.9041 15.06389203 62282
STARLINK-1804           
1 46704U 20073AL  21333.57557418  .00001271  00000+0  10418-3 0  9994
2 46704  53.0568  29.7241 0000934 330.4533  29.6403 15.06397416 62590
STARLINK-1805           
1 46705U 20073AM  21332.66007945 -.00000227  00000+0  36252-5 0  9996
2 46705  53.0552  68.8331 0001242  59.4440 300.6672 15.06396559 61480
STARLINK-1807           
1 46706U 20073AN  21333.49632041  .00000719  00000+0  67152-4 0  9997
2 46706  53.0555  50.0804 0001389  82.8735 277.2412 15.06405227 62307
STARLINK-1808           
1 46707U 20073AP  21332.88998515  .00000453  00000+0  49308-4 0  9999
2 46707  53.0555  32.8110 0001766 313.7007  46.3835 15.06405949 62016
STARLINK-1809           
1 46708U 20073AQ  21332.85548549  .00067945  00000+0  11177-2 0  9995
2 46708  53.0561  15.5758 0003717  49.5483 310.5849 15.51753646 62257
STARLINK-1810           
1 46709U 20073AR  21333.55113816  .00000724  00000+0  67459-4 0  9997
2 46709  53.0579  64.8306 0001170  75.1320 284.9799 15.06405221 62092
STARLINK-1811           
1 46710U 20073AS  21333.51521489  .00000496  00000+0  52157-4 0  9999
2 46710  53.0576  65.0146 0001149  78.1230 281.9888 15.06401114 62098
STARLINK-1813           
1 46711U 20073AT  21333.22356266  .00001140  00000+0  95407-4 0  9999
2 46711  53.0560  51.3187 0001416  80.4852 279.6297 15.06404061 62247
STARLINK-1814           
1 46712U 20073AU  21333.52118551  .00000574  00000+0  57433-4 0  9993
2 46712  53.0567  49.9910 0001319  72.0098 288.1034 15.06401653 62308
STARLINK-1815           
1 46713U 20073AV  21333.20145973  .00000345  00000+0  42087-4 0  9992
2 46713  53.0571  51.4253 0001242  70.5390 289.5733 15.06390941 62257
STARLINK-1816           
1 46714U 20073AW  21333.25674373  .00001110  00000+0  93396-4 0  9999
2 46714  53.0568  51.1654 0001580  82.3146 277.8023 15.06394934 62260
STARLINK-1817           
1 46715U 20073AX  21333.51844796 -.00000752  00000+0 -31632-4 0  9995
2 46715  53.0568  49.9928 0001226  70.2583 289.8538 15.06397334 62304
STARLINK-1818           
1 46716U 20073AY  21332.67113486  .00001042  00000+0  88817-4 0  9995
2 46716  53.0555  68.8024 0001060  47.0921 313.0157 15.06397157 61480
STARLINK-1820           
1 46717U 20073AZ  21332.60802074  .00000373  00000+0  43948-4 0  9999
2 46717  53.0562  54.0682 0001126  71.1757 288.9354 15.06392976 61689
STARLINK-1821           
1 46718U 20073BA  21332.64902797 -.00000182  00000+0  66862-5 0  9997
2 46718  53.0567  68.9044 0001461  87.8174 272.2982 15.06388123 61480
STARLINK-1822           
1 46719U 20073BB  21333.56083138  .00000776  00000+0  70963-4 0  9993
2 46719  53.0573  29.7968 0000545  75.9595 284.1455 15.06396901 62598
STARLINK-1823           
1 46720U 20073BC  21332.82392406  .00045530  00000+0  97482-3 0  9995
2 46720  53.0558  13.6865 0003670  81.4182 278.7239 15.44350332 62271
STARLINK-1825           
1 46722U 20073BE  21333.00655982 -.00000316  00000+0 -23628-5 0  9997
2 46722  53.0563  67.2800 0001128  80.9263 279.1853 15.06390157 62019
STARLINK-1826           
1 46723U 20073BF  21333.43043402  .00000462  00000+0  49866-4 0  9994
2 46723  53.0562  25.3895 0001371  72.7290 287.3849 15.06409883 62649
STARLINK-1828           
1 46725U 20073BH  21332.70431316 -.00000118  00000+0  10997-4 0  9992
2 46725  53.0562  68.6345 0001278  78.1433 281.9700 15.06396522 61499
STARLINK-1829           
1 46726U 20073BJ  21332.72966081  .00000021  00000+0  20474-4 0  9990
2 46726  53.0573  53.5314 0007304  43.5164 316.6400 15.06401814 61702
STARLINK-1830           
1 46727U 20073BK  21333.41568681 -.00002255  00000+0 -13243-3 0  9990
2 46727  53.0550  25.4421 0001599  69.4239 290.6921 15.06422176 62642
STARLINK-1831           
1 46728U 20073BL  21333.49558795  .00154150  00000+0  17777-2 0  9999
2 46728  53.0529  21.1719 0004577  51.0151 309.1268 15.60937796 62707
FLOCK 4V-22             
1 46735U 20061BL  21332.94702129  .00001419  00000+0  74599-4 0  9991
2 46735  97.4140  42.8011 0007286  98.4707 261.7362 15.17252766 61305
FLOCK 4V-23             
1 46737U 20061BM  21332.97238714  .00003644  00000+0  18648-3 0  9994
2 46737  97.4183  43.2167 0006264  89.1425 271.0526 15.17226761 61245
FLOCK 4V-24             
1 46738U 20061BN  21332.43550159  .00004081  00000+0  20941-3 0  9991
2 46738  97.4292  42.9794 0007831 116.4834 243.7202 15.17056678 60736
STARLINK-1848           
1 46740U 20074B   21332.84530855  .00001647  00000+0  12939-3 0  9997
2 46740  53.0554 138.0180 0001900  85.7583 274.3623 15.06409494 61198
STARLINK-1865           
1 46741U 20074C   21333.52582310  .00000855  00000+0  76294-4 0  9992
2 46741  53.0538 129.9578 0001866  82.6315 277.4886 15.06391743 61384
STARLINK-1872           
1 46742U 20074D   21332.83287256 -.00000449  00000+0 -11218-4 0  9993
2 46742  53.0547 133.0558 0001678  92.6601 267.4580 15.06392595 61284
STARLINK-1892           
1 46743U 20074E   21333.51846405  .00001880  00000+0  14513-3 0  9995
2 46743  53.0534 129.9849 0005872  95.3465 264.8194 15.06406854 61394
STARLINK-1894           
1 46744U 20074F   21332.80709010  .00000883  00000+0  78192-4 0  9993
2 46744  53.0527 133.1754 0001977  82.0921 278.0292 15.06392876 61261
STARLINK-1898           
1 46745U 20074G   21333.15760639  .01070169  00000+0  22647-1 0  9993
2 46745  53.0505 128.7434 0002766  59.2495 300.8781 15.42051429 61333
STARLINK-1905           
1 46746U 20074H   21332.88816010 -.00000189  00000+0  61943-5 0  9999
2 46746  53.0545 132.8109 0001792  87.0081 273.1113 15.06390678 61277
STARLINK-1908           
1 46747U 20074J   21332.80338305  .00001488  00000+0  11872-3 0  9994
2 46747  53.0533 133.1878 0001931  83.0910 277.0299 15.06409628 61267
STARLINK-1910           
1 46748U 20074K   21333.47421839 -.00004973  00000+0 -31498-3 0  9994
2 46748  53.0534 130.1889 0002409  72.5086 287.6166 15.06419641 61385
STARLINK-1911           
1 46749U 20074L   21333.21620763  .00001444  00000+0  11584-3 0  9996
2 46749  53.0546 131.3447 0002093  87.6994 272.4235 15.06408162 61347
STARLINK-1920           
1 46751U 20074N   21333.54425808  .00001026  00000+0  87765-4 0  9999
2 46751  53.0535 129.8764 0001903  85.9571 274.1635 15.06392787 61385
STARLINK-1921           
1 46752U 20074P   21333.48896285  .00000426  00000+0  47537-4 0  9990
2 46752  53.0540 130.1261 0002551  80.0953 280.0324 15.06403857 61370
STARLINK-1922           
1 46753U 20074Q   21332.85867031 -.00001288  00000+0 -67550-4 0  9994
2 46753  53.0538 132.9439 0001986  94.8916 265.2300 15.06395125 61274
STARLINK-1923           
1 46754U 20074R   21333.52951438  .00001066  00000+0  90462-4 0  9995
2 46754  53.0534 129.9371 0001903  82.7114 277.4091 15.06392660 61382
STARLINK-1924           
1 46755U 20074S   21333.46823647 -.00000504  00000+0 -14950-4 0  9995
2 46755  53.0524 135.2165 0001094  31.6998 328.4057 15.06397919 61300
STARLINK-1925           
1 46756U 20074T   21333.45991039 -.00000114  00000+0  11257-4 0  9999
2 46756  53.0555 135.2402 0001670  99.5392 260.5786 15.06404084 61318
STARLINK-1926           
1 46757U 20074U   21332.89228963  .00001598  00000+0  12617-3 0  9992
2 46757  53.0540 137.8106 0001754  87.7323 272.3867 15.06402543 61205
STARLINK-1928           
1 46758U 20074V   21333.44982771  .00001466  00000+0  11730-3 0  9998
2 46758  53.0545 135.3067 0001895  87.2891 272.8315 15.06405726 61312
STARLINK-1833           
1 46759U 20074W   21333.51157001  .00000709  00000+0  66486-4 0  9995
2 46759  53.0543 145.0090 0001711  93.5172 266.6013 15.06393993 60894
STARLINK-1896           
1 46760U 20074X   21332.79278773 -.00000825  00000+0 -36517-4 0  9999
2 46760  53.0521 148.2484 0001792  87.7537 272.3657 15.06394040 61054
STARLINK-1902           
1 46763U 20074AA  21332.87294559  .00000754  00000+0  69564-4 0  9998
2 46763  53.0521 147.9034 0001748  80.5090 279.6097 15.06391219 61064
STARLINK-1903           
1 46764U 20074AB  21333.18349492 -.00001160  00000+0 -59020-4 0  9991
2 46764  53.0526 146.4853 0001838  85.3724 274.7475 15.06390498 61121
STARLINK-1906           
1 46765U 20074AC  21333.43782760  .00000894  00000+0  78932-4 0  9993
2 46765  53.0559 145.3565 0002016  89.8654 270.2566 15.06400375 60875
STARLINK-1916           
1 46766U 20074AD  21332.89967975  .00001057  00000+0  89892-4 0  9995
2 46766  53.0518 147.7711 0002082  89.8711 270.2516 15.06400184 60803
STARLINK-1917           
1 46767U 20074AE  21333.52629530  .00001234  00000+0  10171-3 0  9999
2 46767  53.0528 144.9478 0002130  94.2036 265.9197 15.06400486 61170
STARLINK-1918           
1 46768U 20074AF  21332.86650158  .00001441  00000+0  11560-3 0  9999
2 46768  53.0545 147.9154 0001849  82.6015 277.5184 15.06408675 61069
STARLINK-1919           
1 46769U 20074AG  21333.08842372  .00388940  00000+0  89132-2 0  9997
2 46769  53.0558 144.1604 0002581  42.1311 317.9891 15.40733569 60869
STARLINK-1932           
1 46770U 20074AH  21332.88769231  .00000709  00000+0  66548-4 0  9990
2 46770  53.0535 147.8196 0002408  77.9727 282.1532 15.06390727 61062
STARLINK-1936           
1 46772U 20074AK  21332.87387840 -.00001172  00000+0 -59787-4 0  9997
2 46772  53.0537 147.8877 0001998  81.9526 278.1690 15.06394065 61066
STARLINK-1939           
1 46774U 20074AM  21333.21239594  .00006768  00000+0  44724-3 0  9998
2 46774  53.0516 144.8066 0001690 109.2425 250.8748 15.08476748 61144
STARLINK-1945           
1 46775U 20074AN  21333.45763525  .00658972  00000+0  60575-2 0  9992
2 46775  53.0550 134.8197 0002799 348.4094  11.6856 15.65079699 60977
